NORAD_CAT_ID,OBJECT_NAME,OBJECT_TYPE,EPOCH,MEAN_MOTION,ECCENTRICITY,INCLINATION,RA_OF_ASC_NODE,ARG_OF_PERICENTER,MEAN_ANOMALY,BSTAR,MEAN_MOTION_DOT,MEAN_MOTION_DDOT,TLE_LINE0,TLE_LINE1,TLE_LINE2,SEMIMAJOR_AXIS,PERIOD,APOGEE,PERIGEE,DECAYED
55396.0,STARLINK-5283,PAYLOAD,2024-02-07 12:35:19,14.98327529,0.0002784,70.0015,183.4895,262.7159,97.3684,-2.3149e-05,-3.69e-06,0.0,0 STARLINK-5283,1 55396U 23014F   24038.52453496 -.00000369  00000-0 -23149-4 0  9996,2 55396  70.0015 183.4895 0002784 262.7159  97.3684 14.98327529 57104,6950.201,96.107,574.0,570.131,0.0
55396.0,STARLINK-5283,PAYLOAD,2024-02-07 14:11:27,14.98327396,0.0002788,70.0015,183.3212,262.5936,97.4907,-2.4494e-05,-3.85e-06,0.0,0 STARLINK-5283,1 55396U 23014F   24038.59129515 -.00000385  00000-0 -24494-4 0  9997,2 55396  70.0015 183.3212 0002788 262.5936  97.4907 14.98327396 58057,6950.201,96.107,574.004,570.128,0.0
55396.0,STARLINK-5283,PAYLOAD,2024-02-07 18:59:52,14.98327081,0.0002897,70.0013,182.8159,269.8071,90.2756,-3.348e-05,-4.92e-06,0.0,0 STARLINK-5283,1 55396U 23014F   24038.79157625 -.00000492  00000-0 -33480-4 0  9996,2 55396  70.0013 182.8159 0002897 269.8071  90.2756 14.98327081 58087,6950.202,96.107,574.08,570.053,0.0
55396.0,STARLINK-5283,PAYLOAD,2024-02-08 14:13:28,14.98330964,0.0002982,70.0011,180.7952,268.7335,91.3482,-1.8205e-05,-3.1e-06,0.0,0 STARLINK-5283,1 55396U 23014F   24039.59269339 -.00000310  00000-0 -18205-4 0  9998,2 55396  70.0011 180.7952 0002982 268.7335  91.3482 14.98330964 58205,6950.19,96.107,574.127,569.982,0.0
55396.0,STARLINK-5283,PAYLOAD,2024-02-08 19:01:52,14.98335064,0.0002928,70.0012,180.2905,268.4232,91.6591,3.1541e-05,2.83e-06,0.0,0 STARLINK-5283,1 55396U 23014F   24039.79296903  .00000283  00000-0  31541-4 0  9992,2 55396  70.0012 180.2905 0002928 268.4232  91.6591 14.98335064 57290,6950.177,96.107,574.077,570.007,0.0
55396.0,STARLINK-5283,PAYLOAD,2024-02-09 11:03:13,14.98326415,0.0002904,70.0014,178.6074,268.0049,92.0777,1.7837e-05,1.2e-06,0.0,0 STARLINK-5283,1 55396U 23014F   24040.46057426  .00000120  00000-0  17837-4 0  9995,2 55396  70.0014 178.6074 0002904 268.0049  92.0777 14.98326415 57398,6950.204,96.107,574.087,570.051,0.0
55396.0,STARLINK-5283,PAYLOAD,2024-02-09 14:15:29,14.98326221,0.0002913,70.0013,178.2709,268.1912,91.8914,1.4624e-05,8.2e-07,0.0,0 STARLINK-5283,1 55396U 23014F   24040.59409474  .00000082  00000-0  14624-4 0  9991,2 55396  70.0013 178.2709 0002913 268.1912  91.8914 14.98326221 58350,6950.205,96.107,574.094,570.045,0.0
55396.0,STARLINK-5283,PAYLOAD,2024-02-10 11:05:14,14.98327832,0.000308,70.0007,176.0828,270.5603,89.5203,-5.5386e-05,-7.54e-06,0.0,0 STARLINK-5283,1 55396U 23014F   24041.46197683 -.00000754  00000-0 -55386-4 0  9992,2 55396  70.0007 176.0828 0003080 270.5603  89.5203 14.98327832 57545,6950.2,96.107,574.205,569.924,0.0
55396.0,STARLINK-5283,PAYLOAD,2024-02-10 14:17:30,14.9832863,0.0003056,70.0008,175.7461,269.5526,90.5283,-5.2504e-05,-7.19e-06,0.0,0 STARLINK-5283,1 55396U 23014F   24041.59549717 -.00000719  00000-0 -52504-4 0  9995,2 55396  70.0008 175.7461 0003056 269.5526  90.5283 14.98328630 58504,6950.197,96.107,574.186,569.938,0.0
55396.0,STARLINK-5283,PAYLOAD,2024-02-10 19:05:54,14.98334434,0.0003005,70.001,175.2414,270.7843,89.2972,8.8686e-06,1.3e-07,0.0,0 STARLINK-5283,1 55396U 23014F   24041.79577150  .00000013  00000-0  88686-5 0  9995,2 55396  70.0010 175.2414 0003005 270.7843  89.2972 14.98334434 57597,6950.179,96.107,574.133,569.956,0.0
55396.0,STARLINK-5283,PAYLOAD,2024-02-11 12:43:23,14.98329386,0.0003039,70.001,173.3899,274.652,85.4292,3.3146e-05,3.03e-06,0.0,0 STARLINK-5283,1 55396U 23014F   24042.53013275  .00000303  00000-0  33146-4 0  9993,2 55396  70.0010 173.3899 0003039 274.6520  85.4292 14.98329386 58645,6950.195,96.107,574.172,569.948,0.0
55396.0,STARLINK-5283,PAYLOAD,2024-02-11 19:07:54,14.98368745,0.0002182,70.0019,172.7176,264.5879,95.5032,-0.00047184,-5.724e-05,0.0,0 STARLINK-5283,1 55396U 23014F   24042.79715886 -.00005724  00000-0 -47184-3 0  9998,2 55396  70.0019 172.7176 0002182 264.5879  95.5032 14.98368745 57744,6950.073,96.105,573.455,570.422,0.0
55396.0,STARLINK-5283,PAYLOAD,2024-02-12 11:09:16,14.98328745,0.0002995,70.0027,171.0365,271.9124,88.1693,5.1369e-05,5.2e-06,0.0,0 STARLINK-5283,1 55396U 23014F   24043.46477122  .00000520  00000-0  51369-4 0  9999,2 55396  70.0027 171.0365 0002995 271.9124  88.1693 14.98328745 57840,6950.197,96.107,574.143,569.98,0.0
55396.0,STARLINK-5283,PAYLOAD,2024-02-12 14:21:32,14.98327791,0.000296,70.0024,170.6996,267.3874,92.6946,3.3514e-05,3.07e-06,0.0,0 STARLINK-5283,1 55396U 23014F   24043.59829225  .00000307  00000-0  33514-4 0  9993,2 55396  70.0024 170.6996 0002960 267.3874  92.6946 14.98327791 58803,6950.2,96.107,574.122,570.007,0.0
55396.0,STARLINK-5283,PAYLOAD,2024-02-12 19:09:56,14.98329781,0.0003009,70.0024,170.1941,264.6966,95.3849,4.2629e-05,4.16e-06,0.0,0 STARLINK-5283,1 55396U 23014F   24043.79857020  .00000416  00000-0  42629-4 0  9997,2 55396  70.0024 170.1941 0003009 264.6966  95.3849 14.98329781 58831,6950.194,96.107,574.15,569.967,0.0
55396.0,STARLINK-5283,PAYLOAD,2024-02-13 11:11:17,14.98330886,0.0002733,70.0027,168.5075,269.5089,90.5757,-0.00013457,-1.698e-05,0.0,0 STARLINK-5283,1 55396U 23014F   24044.46617533 -.00001698  00000-0 -13457-3 0  9996,2 55396  70.0027 168.5075 0002733 269.5089  90.5757 14.98330886 57995,6950.19,96.107,573.955,570.156,0.0
55396.0,STARLINK-5283,PAYLOAD,2024-02-13 14:23:34,14.98323866,0.0002773,70.0015,168.1725,269.1853,90.8989,-0.00010962,-1.4e-05,0.0,0 STARLINK-5283,1 55396U 23014F   24044.59969913 -.00001400  00000-0 -10962-3 0  9991,2 55396  70.0015 168.1725 0002773 269.1853  90.8989 14.98323866 58956,6950.212,96.107,574.004,570.15,0.0
55396.0,STARLINK-5283,PAYLOAD,2024-02-13 17:35:50,14.98318864,0.0002963,70.0014,167.8371,272.8161,87.2659,-0.00016381,-2.046e-05,0.0,0 STARLINK-5283,1 55396U 23014F   24044.73322481 -.00002046  00000-0 -16381-3 0  9998,2 55396  70.0014 167.8371 0002963 272.8161  87.2659 14.98318864 58037,6950.227,96.108,574.152,570.033,0.0
55396.0,STARLINK-5283,PAYLOAD,2024-02-14 11:13:18,14.98326641,0.0003157,70.0002,165.9823,272.6711,87.4086,1.8261e-05,1.25e-06,0.0,0 STARLINK-5283,1 55396U 23014F   24045.46757629  .00000125  00000-0  18261-4 0  9999,2 55396  70.0002 165.9823 0003157 272.6711  87.4086 14.98326641 58140,6950.203,96.107,574.262,569.874,0.0
55396.0,STARLINK-5283,PAYLOAD,2024-02-14 14:25:33,14.98339805,0.0003062,70.001,165.6479,265.7765,94.3044,0.0001146,1.275e-05,0.0,0 STARLINK-5283,1 55396U 23014F   24045.60108574  .00001275  00000-0  11460-3 0  9994,2 55396  70.0010 165.6479 0003062 265.7765  94.3044 14.98339805 59104,6950.163,96.106,574.156,569.899,0.0
55396.0,STARLINK-5283,PAYLOAD,2024-02-14 17:37:49,14.98341388,0.0003002,70.0011,165.3113,266.0364,94.0452,0.00013291,1.494e-05,0.0,0 STARLINK-5283,1 55396U 23014F   24045.73460364  .00001494  00000-0  13291-3 0  9993,2 55396  70.0011 165.3113 0003002 266.0364  94.0452 14.98341388 58186,6950.158,96.106,574.109,569.936,0.0
55396.0,STARLINK-5283,PAYLOAD,2024-02-15 01:38:30,14.98332789,0.0002833,70.0017,164.4692,266.924,93.1595,-6.6881e-06,-1.73e-06,0.0,0 STARLINK-5283,1 55396U 23014F   24046.06841219 -.00000173  00000-0 -66881-5 0  9992,2 55396  70.0017 164.4692 0002833 266.9240  93.1595 14.98332789 58236,6950.184,96.107,574.018,570.08,0.0
55396.0,STARLINK-5283,PAYLOAD,2024-02-15 11:15:19,14.98321486,0.0002809,70.0016,163.4599,271.6261,88.4577,5.1973e-05,5.27e-06,0.0,0 STARLINK-5283,1 55396U 23014F   24046.46897947  .00000527  00000-0  51973-4 0  9991,2 55396  70.0016 163.4599 0002809 271.6261  88.4577 14.98321486 58294,6950.219,96.108,574.037,570.132,0.0
55396.0,STARLINK-5283,PAYLOAD,2024-02-15 14:27:35,14.98323222,0.0002753,70.0014,163.1223,266.6561,93.4283,3.1827e-05,2.87e-06,0.0,0 STARLINK-5283,1 55396U 23014F   24046.60249926  .00000287  00000-0  31827-4 0  9994,2 55396  70.0014 163.1223 0002753 266.6561  93.4283 14.98323222 59255,6950.214,96.107,573.992,570.165,0.0
55396.0,STARLINK-5283,PAYLOAD,2024-02-15 17:39:51,14.9832648,0.0003048,70.0008,162.7859,269.1005,90.9805,0.00010099,1.112e-05,0.0,0 STARLINK-5283,1 55396U 23014F   24046.73601508  .00001112  00000-0  10099-3 0  9991,2 55396  70.0008 162.7859 0003048 269.1005  90.9805 14.98326480 59270,6950.204,96.107,574.187,569.95,0.0
55396.0,STARLINK-5283,PAYLOAD,2024-02-16 11:17:19,14.98341031,0.000298,70.0009,160.9346,269.6897,90.3921,-4.8421e-05,-6.71e-06,0.0,0 STARLINK-5283,1 55396U 23014F   24047.47037004 -.00000671  00000-0 -48421-4 0  9999,2 55396  70.0009 160.9346 0002980 269.6897  90.3921 14.98341031 58440,6950.159,96.106,574.095,569.953,0.0
55396.0,STARLINK-5283,PAYLOAD,2024-02-16 14:29:35,14.98345223,0.0002882,70.0011,160.5985,265.3426,94.7404,3.2315e-06,-5.4e-07,0.0,0 STARLINK-5283,1 55396U 23014F   24047.60388475 -.00000054  00000-0  32315-5 0  9995,2 55396  70.0011 160.5985 0002882 265.3426  94.7404 14.98345223 59408,6950.146,96.106,574.014,570.008,0.0
55396.0,STARLINK-5283,PAYLOAD,2024-02-16 17:41:51,14.98345618,0.0002971,70.0012,160.2619,268.2369,91.845,3.2966e-05,3.01e-06,0.0,0 STARLINK-5283,1 55396U 23014F   24047.73740259  .00000301  00000-0  32966-4 0  9996,2 55396  70.0012 160.2619 0002971 268.2369  91.8450 14.98345618 59426,6950.145,96.106,574.074,569.945,0.0
55396.0,STARLINK-5283,PAYLOAD,2024-02-17 11:19:21,14.98321972,0.0002712,70.0026,158.4108,265.1832,94.9017,-2.9503e-06,-1.28e-06,0.0,0 STARLINK-5283,1 55396U 23014F   24048.47177802 -.00000128  00000-0 -29503-5 0  9999,2 55396  70.0026 158.4108 0002712 265.1832  94.9017 14.98321972 58594,6950.218,96.108,573.968,570.198,0.0
55396.0,STARLINK-5283,PAYLOAD,2024-02-17 14:31:37,14.98322292,0.0002408,70.0026,158.0742,258.6522,101.4366,-3.5833e-06,-1.36e-06,0.0,0 STARLINK-5283,1 55396U 23014F   24048.60529840 -.00000136  00000-0 -35833-5 0  9999,2 55396  70.0026 158.0742 0002408 258.6522 101.4366 14.98322292 59553,6950.217,96.107,573.755,570.408,0.0
